start=new Date('2021-11-02T00:00:00.000Z').valueOf();
sats=[{"SEMIMAJOR_AXIS":"6918.655","TLE_LINE1":"1 45202U 20012AA  21305.78514148  .00008607  00000-0  56199-3 0  9991","CENTER_NAME":"EARTH","TIME_SYSTEM":"UTC","MEAN_ANOMALY":"278.1780","OBJECT_ID":"2020-012AA","REF_FRAME":"TEME","PERIAPSIS":"539.848","LAUNCH_DATE":"2020-02-17","EPOCH":"2021-11-01T18:50:36.223872","TLE_LINE2":"2 45202  52.9832 334.2719 0000970  81.9319 278.1780 15.08586769 95428","PERIOD":"95.454","REV_AT_EPOCH":"9542","RA_OF_ASC_NODE":"334.2719","FILE":"3196819","OBJECT_NAME":"STARLINK-1203","OBJECT_TYPE":"PAYLOAD","MEAN_MOTION":"15.08586769","NORAD_CAT_ID":"45202","INCLINATION":"52.9832","SITE":"AFETR","CLASSIFICATION_TYPE":"U","ELEMENT_SET_NO":"999","MEAN_MOTION_DDOT":"0.0000000000000","BSTAR":"0.00056199000000","RCS_SIZE":"LARGE","MEAN_MOTION_DOT":"0.00008607","ECCENTRICITY":"0.00009700","EPHEMERIS_TYPE":"0","GP_ID":"188693065","APOAPSIS":"541.191","COUNTRY_CODE":"US","MEAN_ELEMENT_THEORY":"SGP4","DECAY_DATE":null,"ARG_OF_PERICENTER":"81.9319"},{"APOAPSIS":"440.635","GP_ID":"188692314","EPHEMERIS_TYPE":"0","ARG_OF_PERICENTER":"57.1038","MEAN_ELEMENT_THEORY":"SGP4","DECAY_DATE":null,"COUNTRY_CODE":"US","MEAN_MOTION_DDOT":"0.0000000000000","ELEMENT_SET_NO":"999","ECCENTRICITY":"0.00013440","MEAN_MOTION_DOT":"0.00009898","RCS_SIZE":"LARGE","BSTAR":"0.00023655000000","OBJECT_TYPE":"PAYLOAD","OBJECT_NAME":"STARLINK-1204","FILE":"3196819","RA_OF_ASC_NODE":"306.1281","CLASSIFICATION_TYPE":"U","SITE":"AFETR","INCLINATION":"53.0532","NORAD_CAT_ID":"45203","MEAN_MOTION":"15.42166408","LAUNCH_DATE":"2020-02-17","PERIAPSIS":"438.802","REF_FRAME":"TEME","OBJECT_ID":"2020-012AB","MEAN_ANOMALY":"303.0096","TLE_LINE1":"1 45203U 20012AB  21305.70448109  .00009898  00000-0  23655-3 0  9991","TIME_SYSTEM":"UTC","SEMIMAJOR_AXIS":"6817.854","CENTER_NAME":"EARTH","PERIOD":"93.375","REV_AT_EPOCH":"9573","TLE_LINE2":"2 45203  53.0532 306.1281 0001344  57.1038 303.0096 15.42166408 95733","EPOCH":"2021-11-01T16:54:27.166176"},{"LAUNCH_DATE":"2020-02-17","TLE_LINE1":"1 45204U 20012AC  21305.75181379 -.00000037  00000-0  16397-4 0  9993","SEMIMAJOR_AXIS":"6925.382","TIME_SYSTEM":"UTC","CENTER_NAME":"EARTH","OBJECT_ID":"2020-012AC","MEAN_ANOMALY":"284.6022","REF_FRAME":"TEME","PERIAPSIS":"546.278","TLE_LINE2":"2 45204  53.0532 319.6279 0001400  75.5122 284.6022 15.06388953 95645","REV_AT_EPOCH":"9564","PERIOD":"95.593","EPOCH":"2021-11-01T18:02:36.711456","FILE":"3196819","OBJECT_NAME":"STARLINK-1206","OBJECT_TYPE":"PAYLOAD","RA_OF_ASC_NODE":"319.6279","INCLINATION":"53.0532","SITE":"AFETR","CLASSIFICATION_TYPE":"U","MEAN_MOTION":"15.06388953","NORAD_CAT_ID":"45204","MEAN_MOTION_DDOT":"0.0000000000000","ELEMENT_SET_NO":"999","MEAN_MOTION_DOT":"-0.00000037","ECCENTRICITY":"0.00014000","BSTAR":"0.00001639700000","RCS_SIZE":"LARGE","GP_ID":"188692564","APOAPSIS":"548.217","EPHEMERIS_TYPE":"0","DECAY_DATE":null,"MEAN_ELEMENT_THEORY":"SGP4","ARG_OF_PERICENTER":"75.5122","COUNTRY_CODE":"US"},{"EPOCH":"2021-11-01T18:34:25.817952","REV_AT_EPOCH":"9565","PERIOD":"95.592","TLE_LINE2":"2 45205  53.0532 319.5348 0001560  76.4638 283.6525 15.06407930 95656","MEAN_ANOMALY":"283.6525","OBJECT_ID":"2020-012AD","REF_FRAME":"TEME","PERIAPSIS":"546.109","TLE_LINE1":"1 45205U 20012AD  21305.77390993  .00001763  00000-0  13719-3 0  9990","CENTER_NAME":"EARTH","SEMIMAJOR_AXIS":"6925.324","TIME_SYSTEM":"UTC","LAUNCH_DATE":"2020-02-17","NORAD_CAT_ID":"45205","MEAN_MOTION":"15.06407930","SITE":"AFETR","CLASSIFICATION_TYPE":"U","INCLINATION":"53.0532","RA_OF_ASC_NODE":"319.5348","OBJECT_NAME":"STARLINK-1208","OBJECT_TYPE":"PAYLOAD","FILE":"3196819","BSTAR":"0.00013719000000","RCS_SIZE":"LARGE","ECCENTRICITY":"0.00015600","MEAN_MOTION_DOT":"0.00001763","ELEMENT_SET_NO":"999","MEAN_MOTION_DDOT":"0.0000000000000","COUNTRY_CODE":"US","DECAY_DATE":null,"MEAN_ELEMENT_THEORY":"SGP4","ARG_OF_PERICENTER":"76.4638","EPHEMERIS_TYPE":"0","APOAPSIS":"548.270","GP_ID":"188692815"},{"MEAN_MOTION_DOT":"0.00005047","ECCENTRICITY":"0.00016030","BSTAR":"0.00035734000000","RCS_SIZE":"LARGE","MEAN_MOTION_DDOT":"0.0000000000000","ELEMENT_SET_NO":"999","MEAN_ELEMENT_THEORY":"SGP4","DECAY_DATE":null,"ARG_OF_PERICENTER":"77.9911","COUNTRY_CODE":"US","GP_ID":"188658780","APOAPSIS":"548.283","EPHEMERIS_TYPE":"0","TLE_LINE2":"2 45206  53.0543 301.2111 0001603  77.9911 282.1258 15.06413132 94908","PERIOD":"95.591","REV_AT_EPOCH":"9490","EPOCH":"2021-11-01T09:41:00.380832","LAUNCH_DATE":"2020-02-17","SEMIMAJOR_AXIS":"6925.308","TLE_LINE1":"1 45206U 20012AE  21305.40347663  .00005047  00000-0  35734-3 0  9997","CENTER_NAME":"EARTH","TIME_SYSTEM":"UTC","OBJECT_ID":"2020-012AE","MEAN_ANOMALY":"282.1258","PERIAPSIS":"546.063","REF_FRAME":"TEME","INCLINATION":"53.0543","SITE":"AFETR","CLASSIFICATION_TYPE":"U","MEAN_MOTION":"15.06413132","NORAD_CAT_ID":"45206","FILE":"3196301","OBJECT_NAME":"STARLINK-1209","OBJECT_TYPE":"PAYLOAD","RA_OF_ASC_NODE":"301.2111"},{"INCLINATION":"53.0553","CLASSIFICATION_TYPE":"U","SITE":"AFETR","MEAN_MOTION":"15.06410729","NORAD_CAT_ID":"45207","FILE":"3196301","OBJECT_TYPE":"PAYLOAD","OBJECT_NAME":"STARLINK-1210","RA_OF_ASC_NODE":"320.9256","TLE_LINE2":"2 45207  53.0553 320.9256 0001343  74.2937 285.8200 15.06410729 95588","PERIOD":"95.591","REV_AT_EPOCH":"9558","EPOCH":"2021-11-01T11:08:34.698336","LAUNCH_DATE":"2020-02-17","TLE_LINE1":"1 45207U 20012AF  21305.46429049  .00001314  00000-0  10708-3 0  9990","CENTER_NAME":"EARTH","SEMIMAJOR_AXIS":"6925.316","TIME_SYSTEM":"UTC","REF_FRAME":"TEME","PERIAPSIS":"546.251","MEAN_ANOMALY":"285.8200","OBJECT_ID":"2020-012AF","ARG_OF_PERICENTER":"74.2937","DECAY_DATE":null,"MEAN_ELEMENT_THEORY":"SGP4","COUNTRY_CODE":"US","GP_ID":"188659031","APOAPSIS":"548.111","EPHEMERIS_TYPE":"0","MEAN_MOTION_DOT":"0.00001314","ECCENTRICITY":"0.00013430","RCS_SIZE":"LARGE","BSTAR":"0.00010708000000","MEAN_MOTION_DDOT":"0.0000000000000","ELEMENT_SET_NO":"999"},{"LAUNCH_DATE":"2020-02-17","OBJECT_ID":"2020-012AG","MEAN_ANOMALY":"284.5598","PERIAPSIS":"548.591","REF_FRAME":"TEME","TLE_LINE1":"1 45208U 20012AG  21305.76561951  .00001131  00000-0  96750-4 0  9992","SEMIMAJOR_AXIS":"6927.858","CENTER_NAME":"EARTH","TIME_SYSTEM":"UTC","PERIOD":"95.644","REV_AT_EPOCH":"9554","TLE_LINE2":"2 45208  52.9999 319.5767 0001633  75.5571 284.5598 15.05581736 95540","EPOCH":"2021-11-01T18:22:29.525664","OBJECT_NAME":"STARLINK-1211","OBJECT_TYPE":"PAYLOAD","FILE":"3196819","RA_OF_ASC_NODE":"319.5767","SITE":"AFETR","CLASSIFICATION_TYPE":"U","INCLINATION":"52.9999","NORAD_CAT_ID":"45208","MEAN_MOTION":"15.05581736","MEAN_MOTION_DDOT":"0.0000000000000","ELEMENT_SET_NO":"999","ECCENTRICITY":"0.00016330","MEAN_MOTION_DOT":"0.00001131","BSTAR":"0.00009675000000","RCS_SIZE":"LARGE","APOAPSIS":"550.854","GP_ID":"188692064","EPHEMERIS_TYPE":"0","DECAY_DATE":null,"MEAN_ELEMENT_THEORY":"SGP4","ARG_OF_PERICENTER":"75.5571","COUNTRY_CODE":"US"},{"MEAN_MOTION_DDOT":"0.0000000000000","ELEMENT_SET_NO":"999","ECCENTRICITY":"0.00053010","MEAN_MOTION_DOT":"-0.00004861","BSTAR":"-0.00003520300000","RCS_SIZE":"LARGE","APOAPSIS":"363.313","GP_ID":"188693316","EPHEMERIS_TYPE":"0","MEAN_ELEMENT_THEORY":"SGP4","DECAY_DATE":null,"ARG_OF_PERICENTER":"37.9126","COUNTRY_CODE":"US","LAUNCH_DATE":"2020-02-17","MEAN_ANOMALY":"322.2263","OBJECT_ID":"2020-012AH","REF_FRAME":"TEME","PERIAPSIS":"356.169","TLE_LINE1":"1 45209U 20012AH  21305.61062349 -.00004861  00000-0 -35203-4 0  9995","TIME_SYSTEM":"UTC","SEMIMAJOR_AXIS":"6737.876","CENTER_NAME":"EARTH","PERIOD":"91.737","REV_AT_EPOCH":"9638","TLE_LINE2":"2 45209  53.0530 260.9426 0005301  37.9126 322.2263 15.69705734 96387","EPOCH":"2021-11-01T14:39:17.869536","OBJECT_NAME":"STARLINK-1218","OBJECT_TYPE":"PAYLOAD","FILE":"3196819","RA_OF_ASC_NODE":"260.9426","SITE":"AFETR","CLASSIFICATION_TYPE":"U","INCLINATION":"53.0530","NORAD_CAT_ID":"45209","MEAN_MOTION":"15.69705734"},{"RA_OF_ASC_NODE":"319.7317","FILE":"3196819","OBJECT_TYPE":"PAYLOAD","OBJECT_NAME":"STARLINK-1219","MEAN_MOTION":"15.06406966","NORAD_CAT_ID":"45210","INCLINATION":"53.0542","CLASSIFICATION_TYPE":"U","SITE":"AFETR","SEMIMAJOR_AXIS":"6925.327","TLE_LINE1":"1 45210U 20012AJ  21305.73335936  .00002706  00000-0  20045-3 0  9996","CENTER_NAME":"EARTH","TIME_SYSTEM":"UTC","PERIAPSIS":"546.146","REF_FRAME":"TEME","OBJECT_ID":"2020-012AJ","MEAN_ANOMALY":"282.5192","LAUNCH_DATE":"2020-02-17","EPOCH":"2021-11-01T17:36:02.248704","TLE_LINE2":"2 45210  53.0542 319.7317 0001511  77.5966 282.5192 15.06406966 95514","REV_AT_EPOCH":"9551","PERIOD":"95.592","EPHEMERIS_TYPE":"0","GP_ID":"188693066","APOAPSIS":"548.239","COUNTRY_CODE":"US","ARG_OF_PERICENTER":"77.5966","MEAN_ELEMENT_THEORY":"SGP4","DECAY_DATE":null,"ELEMENT_SET_NO":"999","MEAN_MOTION_DDOT":"0.0000000000000","RCS_SIZE":"LARGE","BSTAR":"0.00020045000000","MEAN_MOTION_DOT":"0.00002706","ECCENTRICITY":"0.00015110"},{"EPOCH":"2021-11-01T18:23:49.593408","TLE_LINE2":"2 45212  53.0539 319.5814 0001376  73.7406 286.3734 15.06407458 95586","PERIOD":"95.592","REV_AT_EPOCH":"9558","TLE_LINE1":"1 45212U 20012AL  21305.76654622  .00001321  00000-0  10757-3 0  9998","SEMIMAJOR_AXIS":"6925.326","CENTER_NAME":"EARTH","TIME_SYSTEM":"UTC","MEAN_ANOMALY":"286.3734","OBJECT_ID":"2020-012AL","PERIAPSIS":"546.238","REF_FRAME":"TEME","LAUNCH_DATE":"2020-02-17","MEAN_MOTION":"15.06407458","NORAD_CAT_ID":"45212","INCLINATION":"53.0539","SITE":"AFETR","CLASSIFICATION_TYPE":"U","RA_OF_ASC_NODE":"319.5814","FILE":"3196819","OBJECT_NAME":"STARLINK-1231","OBJECT_TYPE":"PAYLOAD","BSTAR":"0.00010757000000","RCS_SIZE":"LARGE","MEAN_MOTION_DOT":"0.00001321","ECCENTRICITY":"0.00013760","ELEMENT_SET_NO":"999","MEAN_MOTION_DDOT":"0.0000000000000","COUNTRY_CODE":"US","MEAN_ELEMENT_THEORY":"SGP4","DECAY_DATE":null,"ARG_OF_PERICENTER":"73.7406","EPHEMERIS_TYPE":"0","GP_ID":"188692315","APOAPSIS":"548.144"}];
